[{"OBJECT_NAME":"OBJECT F","OBJECT_ID":"2023-072F","EPOCH":"2026-03-09T23:31:37.259904","MEAN_MOTION":15.29470958,"ECCENTRICITY":0.00062878,"INCLINATION":97.5173,"RA_OF_ASC_NODE":265.798,"ARG_OF_PERICENTER":19.0017,"MEAN_ANOMALY":341.1456,"EPHEMERIS_TYPE":0,"CLASSIFICATION_TYPE":"U","NORAD_CAT_ID":56748,"ELEMENT_SET_NO":999,"REV_AT_EPOCH":15460,"BSTAR":0.00043416252,"MEAN_MOTION_DOT":0.00012341,"MEAN_MOTION_DDOT":0},{"OBJECT_NAME":"STARLINK-30309","OBJECT_ID":"2023-122A","EPOCH":"2026-03-09T09:53:54.246624","MEAN_MOTION":15.26712855,"ECCENTRICITY":0.00010941,"INCLINATION":42.9987,"RA_OF_ASC_NODE":94.1486,"ARG_OF_PERICENTER":299.3962,"MEAN_ANOMALY":60.678,"EPHEMERIS_TYPE":0,"CLASSIFICATION_TYPE":"U","NORAD_CAT_ID":57632,"ELEMENT_SET_NO":999,"REV_AT_EPOCH":14216,"BSTAR":-0.00015787097,"MEAN_MOTION_DOT":-4.488e-5,"MEAN_MOTION_DDOT":0}]
